STARLINK-31657          
1 59487U 24071D   26068.08129746 -.00004398  00000+0 -15047-3 0  9991
2 59487  43.0031 343.0916 0001439 283.5557  76.5134 15.27566210108116
TEVEL2-8                
1 63239U 25052AF  26068.66815442  .00019130  00000+0  69304-3 0  9993
2 63239  97.4055 324.2923 0008031 124.9191 235.2804 15.28392908 54807
